     3.02           N: GNSS NAV DATA    M: MIXED NAV DATA   RINEX VERSION / TYPE
Alloy 6.23          Receiver Operator   20241227 000000 UTC PGM / RUN BY / DATE
GPSA    .2887D-07   .2980D-07  -.1192D-06   .0000D+00       IONOSPHERIC CORR
GPSB    .1556D+06  -.2130D+06  -.6554D+05   .5243D+06       IONOSPHERIC CORR
GAL     .2037D+03   .1641D+00  -.2371D-01   .0000D+00       IONOSPHERIC CORR
QZSA    .2235D-07  -.2980D-07  -.3576D-06  -.2980D-06       IONOSPHERIC CORR
QZSB    .1147D+06  -.1147D+06   .5243D+06  -.6750D+07       IONOSPHERIC CORR
BDSA    .1490D-07   .3949D-06  -.2384D-05   .3397D-05       IONOSPHERIC CORR
BDSB    .1925D+06  -.4915D+06   .1311D+06   .5898D+06       IONOSPHERIC CORR
GPUT   .1862645149D-08  .444089210D-14 589824 2346          TIME SYSTEM CORR
GLUT   .9313225746D-08  .000000000D+00 427518 2346          TIME SYSTEM CORR
GAUT   .2793967724D-08 -.888178420D-15 345600 2346          TIME SYSTEM CORR
BDUT  -.3725290298D-08  .000000000D+00     14  990          TIME SYSTEM CORR
QZUT   .1396983862D-07  .000000000D+00   8192 2347          TIME SYSTEM CORR
GPGA   .3172317520D-08 -.888178420D-14 432000 2346          TIME SYSTEM CORR
    18    18  2441     7                                    LEAP SECONDS
                                                            END OF HEADER
E34 2024 12 27 06 00 00 -.154081208166D-03 -.223110419029D-11  .000000000000D+00
      .121000000000D+03 -.860937500000D+02  .273404245527D-08  .204688837481D+01
     -.400096178055D-05  .203864881769D-03  .644475221634D-06  .544060764885D+04
      .453600000000D+06 -.316649675369D-07 -.165468540813D+01 -.149011611938D-07
      .999480053202D+00  .348656250000D+03 -.222692941317D+01 -.562702010226D-08
     -.971469037013D-10  .513000000000D+03  .234600000000D+04
      .312000000000D+01  .000000000000D+00  .000000000000D+00  .162981450558D-08
      .454285000000D+06
E15 2024 12 27 06 00 00 -.147428654600D-03 -.233058017329D-11  .000000000000D+00
      .121000000000D+03 -.943750000000D+02  .279011621954D-08  .268768073166D+00
     -.435672700405D-05  .434612622485D-03  .119395554066D-05  .544060265923D+04
      .453600000000D+06 -.391155481339D-07 -.165289245281D+01 -.931322574615D-08
      .999606784332D+00  .333593750000D+03 -.123069038767D+01 -.565023535498D-08
     -.975040614355D-10  .513000000000D+03  .234600000000D+04
      .312000000000D+01  .000000000000D+00  .186264514923D-08  .302679836750D-08
      .454285000000D+06
E36 2024 12 27 06 00 00 -.330583075993D-03 -.525801624462D-11  .000000000000D+00
      .121000000000D+03 -.809687500000D+02  .269868383959D-08  .166199929925D+01
     -.397115945816D-05  .361675396562D-03  .627711415291D-06  .544060938072D+04
      .453600000000D+06  .279396772385D-07 -.165282109312D+01 -.484287738800D-07
      .999654362817D+00  .347500000000D+03 -.105783208398D+01 -.565166398592D-08
     -.800033324599D-10  .513000000000D+03  .234600000000D+04
      .312000000000D+01  .000000000000D+00  .162981450558D-08  .279396772385D-08
      .454285000000D+06
E30 2024 12 27 06 00 00 -.107185565867D-02 -.399467126044D-10  .000000000000D+00
      .121000000000D+03  .103562500000D+03  .279618790102D-08  .178912536037D+00
      .489689409733D-05  .555309816264D-03  .101532787085D-04  .544062853050D+04
      .453600000000D+06 -.558793544769D-07  .253904220857D+01 -.596046447754D-07
      .962331956440D+00  .125875000000D+03  .935443225171D+00 -.522878922863D-08
     -.366800993019D-09  .513000000000D+03  .234600000000D+04
      .312000000000D+01  .000000000000D+00 -.256113708019D-08 -.209547579288D-08
      .454285000000D+06
E 7 2024 12 27 06 00 00 -.160353258252D-03 -.204636307899D-11  .000000000000D+00
      .121000000000D+03 -.431250000000D+01  .328442252367D-08  .251487863474D+01
     -.350177288055D-06  .115106464364D-03  .760331749916D-05  .544059989548D+04
      .453600000000D+06 -.111758708954D-07  .436087905063D+00  .223517417908D-07
      .963364627386D+00  .177375000000D+03 -.708666220050D-01 -.543201197939D-08
      .405016870578D-09  .513000000000D+03  .234600000000D+04
      .312000000000D+01  .000000000000D+00  .931322574615D-09  .209547579288D-08
      .454285000000D+06
E 3 2024 12 27 06 00 00 -.162606535014D-03 -.255795384874D-11  .000000000000D+00
      .121000000000D+03  .565625000000D+01  .336156859425D-08  .300133335075D+01
      .365078449249D-06  .264859758317D-03  .753812491894D-05  .544060198402D+04
      .453600000000D+06  .800937414169D-07  .436017888341D+00  .130385160446D-07
      .963322232021D+00  .179531250000D+03  .100620160733D+01 -.555916013276D-08
      .434660962517D-09  .513000000000D+03  .234600000000D+04
      .312000000000D+01  .000000000000D+00 -.116415321827D-08 -.232830643654D-09
      .454285000000D+06
E15 2024 12 27 06 00 00 -.147429993376D-03 -.231636931858D-11  .000000000000D+00
      .121000000000D+03 -.943750000000D+02  .279011621954D-08  .268768073166D+00
     -.435672700405D-05  .434612622485D-03  .119395554066D-05  .544060265923D+04
      .453600000000D+06 -.391155481339D-07 -.165289245281D+01 -.931322574615D-08
      .999606784332D+00  .333593750000D+03 -.123069038767D+01 -.565023535498D-08
     -.975040614355D-10  .258000000000D+03  .234600000000D+04
      .312000000000D+01  .000000000000D+00  .186264514923D-08  .000000000000D+00
      .454320000000D+06
E27 2024 12 27 06 00 00 -.540349748917D-03 -.991917659121D-11  .000000000000D+00
      .121000000000D+03  .112843750000D+03  .265975364656D-08 -.135221990207D+00
      .528804957867D-05  .310656847432D-03  .107344239950D-04  .544062329292D+04
      .453600000000D+06 -.931322574615D-08  .253641510174D+01  .614672899246D-07
      .964502258316D+00  .111343750000D+03  .470922964495D+00 -.519664503255D-08
     -.316441752498D-09  .258000000000D+03  .234600000000D+04
      .312000000000D+01  .000000000000D+00 -.325962901115D-08  .000000000000D+00
      .454320000000D+06
E30 2024 12 27 06 00 00 -.107185635716D-02 -.399467126044D-10  .000000000000D+00
      .121000000000D+03  .103562500000D+03  .279618790102D-08  .178912536037D+00
      .489689409733D-05  .555309816264D-03  .101532787085D-04  .544062853050D+04
      .453600000000D+06 -.558793544769D-07  .253904220857D+01 -.596046447754D-07
      .962331956440D+00  .125875000000D+03  .935443225171D+00 -.522878922863D-08
     -.366800993019D-09  .258000000000D+03  .234600000000D+04
      .312000000000D+01  .000000000000D+00 -.256113708019D-08  .000000000000D+00
      .454320000000D+06
E36 2024 12 27 06 00 00 -.330584705807D-03 -.524380538991D-11  .000000000000D+00
      .121000000000D+03 -.809687500000D+02  .269868383959D-08  .166199929925D+01
     -.397115945816D-05  .361675396562D-03  .627711415291D-06  .544060938072D+04
      .453600000000D+06  .279396772385D-07 -.165282109312D+01 -.484287738800D-07
      .999654362817D+00  .347500000000D+03 -.105783208398D+01 -.565166398592D-08
     -.800033324599D-10  .258000000000D+03  .234600000000D+04
      .312000000000D+01  .000000000000D+00  .162981450558D-08  .000000000000D+00
      .454320000000D+06
E 7 2024 12 27 06 00 00 -.160354713444D-03 -.204636307899D-11  .000000000000D+00
      .121000000000D+03 -.431250000000D+01  .328442252367D-08  .251487863474D+01
     -.350177288055D-06  .115106464364D-03  .760331749916D-05  .544059989548D+04
      .453600000000D+06 -.111758708954D-07  .436087905063D+00  .223517417908D-07
      .963364627386D+00  .177375000000D+03 -.708666220050D-01 -.543201197939D-08
      .405016870578D-09  .258000000000D+03  .234600000000D+04
      .312000000000D+01  .000000000000D+00  .931322574615D-09  .000000000000D+00
      .454320000000D+06
E 3 2024 12 27 06 00 00 -.162607757375D-03 -.254374299402D-11  .000000000000D+00
      .121000000000D+03  .565625000000D+01  .336156859425D-08  .300133335075D+01
      .365078449249D-06  .264859758317D-03  .753812491894D-05  .544060198402D+04
      .453600000000D+06  .800937414169D-07  .436017888341D+00  .130385160446D-07
      .963322232021D+00  .179531250000D+03  .100620160733D+01 -.555916013276D-08
      .434660962517D-09  .258000000000D+03  .234600000000D+04
      .312000000000D+01  .000000000000D+00 -.116415321827D-08  .000000000000D+00
      .454320000000D+06
E34 2024 12 27 06 00 00 -.154083012603D-03 -.223110419029D-11  .000000000000D+00
      .121000000000D+03 -.860937500000D+02  .273404245527D-08  .204688837481D+01
     -.400096178055D-05  .203864881769D-03  .644475221634D-06  .544060764885D+04
      .453600000000D+06 -.316649675369D-07 -.165468540813D+01 -.149011611938D-07
      .999480053202D+00  .348656250000D+03 -.222692941317D+01 -.562702010226D-08
     -.971469037013D-10  .258000000000D+03  .234600000000D+04
      .312000000000D+01  .000000000000D+00  .000000000000D+00  .000000000000D+00
      .454320000000D+06
C28 2024 12 27 06 00 00  .324444263242D-03  .418420853521D-11  .000000000000D+00
      .100000000000D+01  .445468750000D+02  .410374236591D-08  .311858293007D+00
      .215135514736D-05  .264866510406D-03  .296626240015D-06  .528263315010D+04
      .453600000000D+06 -.358559191227D-07 -.227060188464D+01 -.130385160446D-07
      .956157224998D+00  .350406250000D+03 -.139546900506D+01 -.727387441464D-08
      .131434046184D-09  .000000000000D+00  .990000000000D+03  .000000000000D+00
      .200000000000D+01  .000000000000D+00 -.389999987860D-08 -.390000000000D-08
      .454350000000D+06  .100000000000D+01
G07 2024 12 27 08 00 00 -.144322402775D-04  .909494701773D-12  .000000000000D+00
      .290000000000D+02 -.631250000000D+01  .487556022951D-08 -.212252640946D+01
     -.426545739174D-06  .188791000983D-01  .603497028351D-05  .515375488853D+04
      .460800000000D+06  .236555933952D-06  .140284958622D+01 -.100582838058D-06
      .949910630631D+00  .253750000000D+03 -.208685060369D+01 -.777353808478D-08
     -.174292974288D-09  .100000000000D+01  .234600000000D+04  .000000000000D+00
      .200000000000D+01  .000000000000D+00 -.107102096081D-07  .290000000000D+02
      .454458000000D+06  .400000000000D+01
